CCSDS_OMM_VERS = 2.0
CREATION_DATE  = 
ORIGINATOR     = 

OBJECT_NAME    = SL-4 R/B
OBJECT_ID      = 2014-021B
CENTER_NAME    = EARTH
REF_FRAME      = TEME
TIME_SYSTEM    = UTC
MEAN_ELEMENT_THEORY = SGP/SGP4

EPOCH          = 2026-01-03T04:52:13.479456
MEAN_MOTION    = 15.37250516
ECCENTRICITY   = .01001259
INCLINATION    = 51.6097
RA_OF_ASC_NODE = 296.2460
ARG_OF_PERICENTER = 223.8476
MEAN_ANOMALY   = 135.4528

EPHEMERIS_TYPE = 0
CLASSIFICATION_TYPE = U
NORAD_CAT_ID   = 39679
ELEMENT_SET_NO = 999
REV_AT_EPOCH   = 64619
BSTAR          = .45311128E-3
MEAN_MOTION_DOT = .19528E-3
MEAN_MOTION_DDOT = 0

CCSDS_OMM_VERS = 2.0
CREATION_DATE  = 
ORIGINATOR     = 

OBJECT_NAME    = ALOS-2
OBJECT_ID      = 2014-029A
CENTER_NAME    = EARTH
REF_FRAME      = TEME
TIME_SYSTEM    = UTC
MEAN_ELEMENT_THEORY = SGP/SGP4

EPOCH          = 2026-01-03T06:00:25.772256
MEAN_MOTION    = 14.79469433
ECCENTRICITY   = .0001385
INCLINATION    = 97.9221
RA_OF_ASC_NODE = 102.7901
ARG_OF_PERICENTER = 103.8284
MEAN_ANOMALY   = 256.3082

EPHEMERIS_TYPE = 0
CLASSIFICATION_TYPE = U
NORAD_CAT_ID   = 39766
ELEMENT_SET_NO = 999
REV_AT_EPOCH   = 62719
BSTAR          = .75806036E-3
MEAN_MOTION_DOT = .5614E-4
MEAN_MOTION_DDOT = 0

CCSDS_OMM_VERS = 2.0
CREATION_DATE  = 
ORIGINATOR     = 

OBJECT_NAME    = YAOGAN-29
OBJECT_ID      = 2015-069A
CENTER_NAME    = EARTH
REF_FRAME      = TEME
TIME_SYSTEM    = UTC
MEAN_ELEMENT_THEORY = SGP/SGP4

EPOCH          = 2026-01-03T06:39:11.189376
MEAN_MOTION    = 14.82909786
ECCENTRICITY   = .00015224
INCLINATION    = 98.0204
RA_OF_ASC_NODE = 31.5167
ARG_OF_PERICENTER = 147.7803
MEAN_ANOMALY   = 212.3504

EPHEMERIS_TYPE = 0
CLASSIFICATION_TYPE = U
NORAD_CAT_ID   = 41038
ELEMENT_SET_NO = 999
REV_AT_EPOCH   = 54618
BSTAR          = .78009887E-4
MEAN_MOTION_DOT = .578E-5
MEAN_MOTION_DDOT = 0

CCSDS_OMM_VERS = 2.0
CREATION_DATE  = 
ORIGINATOR     = 

OBJECT_NAME    = ASTRO-H (HITOMI)
OBJECT_ID      = 2016-012A
CENTER_NAME    = EARTH
REF_FRAME      = TEME
TIME_SYSTEM    = UTC
MEAN_ELEMENT_THEORY = SGP/SGP4

EPOCH          = 2026-01-03T05:56:59.433504
MEAN_MOTION    = 15.09523932
ECCENTRICITY   = .00095757
INCLINATION    = 31.0010
RA_OF_ASC_NODE = 58.6969
ARG_OF_PERICENTER = 35.0915
MEAN_ANOMALY   = 325.0353

EPHEMERIS_TYPE = 0
CLASSIFICATION_TYPE = U
NORAD_CAT_ID   = 41337
ELEMENT_SET_NO = 999
REV_AT_EPOCH   = 54233
BSTAR          = .3609798E-3
MEAN_MOTION_DOT = .6032E-4
MEAN_MOTION_DDOT = 0

CCSDS_OMM_VERS = 2.0
CREATION_DATE  = 
ORIGINATOR     = 

OBJECT_NAME    = HXMT (HUIYAN)
OBJECT_ID      = 2017-034A
CENTER_NAME    = EARTH
REF_FRAME      = TEME
TIME_SYSTEM    = UTC
MEAN_ELEMENT_THEORY = SGP/SGP4

EPOCH          = 2026-01-03T06:20:55.207968
MEAN_MOTION    = 15.16551267
ECCENTRICITY   = .00323261
INCLINATION    = 43.0156
RA_OF_ASC_NODE = 20.1604
ARG_OF_PERICENTER = 183.5445
MEAN_ANOMALY   = 176.5178

EPHEMERIS_TYPE = 0
CLASSIFICATION_TYPE = U
NORAD_CAT_ID   = 42758
ELEMENT_SET_NO = 999
REV_AT_EPOCH   = 47260
BSTAR          = .52683518E-3
MEAN_MOTION_DOT = .10379E-3
MEAN_MOTION_DDOT = 0

CCSDS_OMM_VERS = 2.0
CREATION_DATE  = 
ORIGINATOR     = 

OBJECT_NAME    = CZ-2C R/B
OBJECT_ID      = 2018-054D
CENTER_NAME    = EARTH
REF_FRAME      = TEME
TIME_SYSTEM    = UTC
MEAN_ELEMENT_THEORY = SGP/SGP4

EPOCH          = 2026-01-03T04:50:03.209856
MEAN_MOTION    = 15.79427823
ECCENTRICITY   = .00122175
INCLINATION    = 35.1340
RA_OF_ASC_NODE = 34.8382
ARG_OF_PERICENTER = 357.7184
MEAN_ANOMALY   = 2.3494

EPHEMERIS_TYPE = 0
CLASSIFICATION_TYPE = U
NORAD_CAT_ID   = 43521
ELEMENT_SET_NO = 999
REV_AT_EPOCH   = 41844
BSTAR          = .92299671E-3
MEAN_MOTION_DOT = .178134E-2
MEAN_MOTION_DDOT = 0

CCSDS_OMM_VERS = 2.0
CREATION_DATE  = 
ORIGINATOR     = 

OBJECT_NAME    = SAOCOM 1A
OBJECT_ID      = 2018-076A
CENTER_NAME    = EARTH
REF_FRAME      = TEME
TIME_SYSTEM    = UTC
MEAN_ELEMENT_THEORY = SGP/SGP4

EPOCH          = 2026-01-03T08:13:38.337312
MEAN_MOTION    = 14.82161490
ECCENTRICITY   = .0001261
INCLINATION    = 97.8862
RA_OF_ASC_NODE = 192.4511
ARG_OF_PERICENTER = 88.3559
MEAN_ANOMALY   = 271.7798

EPHEMERIS_TYPE = 0
CLASSIFICATION_TYPE = U
NORAD_CAT_ID   = 43641
ELEMENT_SET_NO = 999
REV_AT_EPOCH   = 39168
BSTAR          = -.79054E-6
MEAN_MOTION_DOT = -.58E-6
MEAN_MOTION_DDOT = 0

CCSDS_OMM_VERS = 2.0
CREATION_DATE  = 
ORIGINATOR     = 

OBJECT_NAME    = H-2A R/B
OBJECT_ID      = 2018-084L
CENTER_NAME    = EARTH
REF_FRAME      = TEME
TIME_SYSTEM    = UTC
MEAN_ELEMENT_THEORY = SGP/SGP4

EPOCH          = 2026-01-03T02:24:23.269248
MEAN_MOTION    = 15.38316577
ECCENTRICITY   = .00260187
INCLINATION    = 98.8759
RA_OF_ASC_NODE = 206.6217
ARG_OF_PERICENTER = 251.3277
MEAN_ANOMALY   = 108.5138

EPHEMERIS_TYPE = 0
CLASSIFICATION_TYPE = U
NORAD_CAT_ID   = 43682
ELEMENT_SET_NO = 999
REV_AT_EPOCH   = 39568
BSTAR          = .81738483E-3
MEAN_MOTION_DOT = .31212E-3
MEAN_MOTION_DDOT = 0

CCSDS_OMM_VERS = 2.0
CREATION_DATE  = 
ORIGINATOR     = 

OBJECT_NAME    = SAOCOM 1B
OBJECT_ID      = 2020-059A
CENTER_NAME    = EARTH
REF_FRAME      = TEME
TIME_SYSTEM    = UTC
MEAN_ELEMENT_THEORY = SGP/SGP4

EPOCH          = 2026-01-03T07:21:23.682240
MEAN_MOTION    = 14.82166568
ECCENTRICITY   = .00014683
INCLINATION    = 97.8840
RA_OF_ASC_NODE = 191.5138
ARG_OF_PERICENTER = 83.3952
MEAN_ANOMALY   = 276.7428

EPHEMERIS_TYPE = 0
CLASSIFICATION_TYPE = U
NORAD_CAT_ID   = 46265
ELEMENT_SET_NO = 999
REV_AT_EPOCH   = 28906
BSTAR          = .7938891E-4
MEAN_MOTION_DOT = .58E-5
MEAN_MOTION_DDOT = 0

CCSDS_OMM_VERS = 2.0
CREATION_DATE  = 
ORIGINATOR     = 

OBJECT_NAME    = CSS (TIANHE)
OBJECT_ID      = 2021-035A
CENTER_NAME    = EARTH
REF_FRAME      = TEME
TIME_SYSTEM    = UTC
MEAN_ELEMENT_THEORY = SGP/SGP4

EPOCH          = 2026-01-03T02:27:16.953984
MEAN_MOTION    = 15.60118747
ECCENTRICITY   = .00103492
INCLINATION    = 41.4661
RA_OF_ASC_NODE = 246.9310
ARG_OF_PERICENTER = 209.1942
MEAN_ANOMALY   = 150.8319

EPHEMERIS_TYPE = 0
CLASSIFICATION_TYPE = U
NORAD_CAT_ID   = 48274
ELEMENT_SET_NO = 999
REV_AT_EPOCH   = 26736
BSTAR          = .38473373E-3
MEAN_MOTION_DOT = .32013E-3
MEAN_MOTION_DDOT = 0

CCSDS_OMM_VERS = 2.0
CREATION_DATE  = 
ORIGINATOR     = 

OBJECT_NAME    = COSMOS 2550
OBJECT_ID      = 2021-056A
CENTER_NAME    = EARTH
REF_FRAME      = TEME
TIME_SYSTEM    = UTC
MEAN_ELEMENT_THEORY = SGP/SGP4

EPOCH          = 2026-01-02T18:54:51.578208
MEAN_MOTION    = 15.33828757
ECCENTRICITY   = .00083404
INCLINATION    = 67.1441
RA_OF_ASC_NODE = 240.2690
ARG_OF_PERICENTER = 269.2800
MEAN_ANOMALY   = 90.7399

EPHEMERIS_TYPE = 0
CLASSIFICATION_TYPE = U
NORAD_CAT_ID   = 48865
ELEMENT_SET_NO = 999
REV_AT_EPOCH   = 25335
BSTAR          = .775845E-6
MEAN_MOTION_DOT = -.166E-5
MEAN_MOTION_DDOT = 0

CCSDS_OMM_VERS = 2.0
CREATION_DATE  = 
ORIGINATOR     = 

OBJECT_NAME    = CZ-2C R/B
OBJECT_ID      = 2022-058K
CENTER_NAME    = EARTH
REF_FRAME      = TEME
TIME_SYSTEM    = UTC
MEAN_ELEMENT_THEORY = SGP/SGP4

EPOCH          = 2026-01-03T03:48:34.333344
MEAN_MOTION    = 15.49814438
ECCENTRICITY   = .00437744
INCLINATION    = 50.1906
RA_OF_ASC_NODE = 294.2242
ARG_OF_PERICENTER = 286.2640
MEAN_ANOMALY   = 73.3516

EPHEMERIS_TYPE = 0
CLASSIFICATION_TYPE = U
NORAD_CAT_ID   = 52794
ELEMENT_SET_NO = 999
REV_AT_EPOCH   = 19995
BSTAR          = .72488771E-3
MEAN_MOTION_DOT = .42541E-3
MEAN_MOTION_DDOT = 0

