SL-4 R/B                
1 39679U 14021B   26003.20293379  .00019528  00000+0  45311-3 0  9999
2 39679  51.6097 296.2460 0100125 223.8476 135.4528 15.37250516646193
ALOS-2                  
1 39766U 14029A   26003.25029829  .00005614  00000+0  75806-3 0  9999
2 39766  97.9221 102.7901 0001385 103.8284 256.3082 14.79469433627197
YAOGAN-29               
1 41038U 15069A   26003.27721284  .00000578  00000+0  78010-4 0  9990
2 41038  98.0204  31.5167 0001522 147.7803 212.3504 14.82909786546189
ASTRO-H (HITOMI)        
1 41337U 16012A   26003.24791011  .00006032  00000+0  36098-3 0  9993
2 41337  31.0010  58.6969 0009575  35.0915 325.0353 15.09523932542334
HXMT (HUIYAN)           
1 42758U 17034A   26003.26452787  .00010379  00000+0  52684-3 0  9990
2 42758  43.0156  20.1604 0032326 183.5445 176.5178 15.16551267472609
CZ-2C R/B               
1 43521U 18054D   26003.20142604  .00178134  00000+0  92300-3 0  9993
2 43521  35.1340  34.8382 0012217 357.7184   2.3494 15.79427823418440
SAOCOM 1A               
1 43641U 18076A   26003.34280483 -.00000058  00000+0 -79054-6 0  9998
2 43641  97.8862 192.4511 0001261  88.3559 271.7798 14.82161490391685
H-2A R/B                
1 43682U 18084L   26003.10026932  .00031212  00000+0  81738-3 0  9996
2 43682  98.8759 206.6217 0026018 251.3277 108.5138 15.38316577395682
SAOCOM 1B               
1 46265U 20059A   26003.30652410  .00000580  00000+0  79389-4 0  9993
2 46265  97.8840 191.5138 0001468  83.3952 276.7428 14.82166568289066
CSS (TIANHE)            
1 48274U 21035A   26003.10227956  .00032013  00000+0  38473-3 0  9995
2 48274  41.4661 246.9310 0010349 209.1942 150.8319 15.60118747267369
COSMOS 2550             
1 48865U 21056A   26002.78809697 -.00000166  00000+0  77585-6 0  9990
2 48865  67.1441 240.2690 0008340 269.2800  90.7399 15.33828757253355
CZ-2C R/B               
1 52794U 22058K   26003.15873071  .00042541  00000+0  72489-3 0  9995
2 52794  50.1906 294.2242 0043774 286.2640  73.3516 15.49814438199953
